[{"OBJECT_NAME":"STARLINK-6296","OBJECT_ID":"2023-078G","EPOCH":"2026-03-09T23:11:47.813568","MEAN_MOTION":14.98325501,"ECCENTRICITY":0.00027866,"INCLINATION":69.999,"RA_OF_ASC_NODE":303.9273,"ARG_OF_PERICENTER":270.4408,"MEAN_ANOMALY":89.6431,"EPHEMERIS_TYPE":0,"CLASSIFICATION_TYPE":"U","NORAD_CAT_ID":56773,"ELEMENT_SET_NO":999,"REV_AT_EPOCH":15370,"BSTAR":2.3787996e-5,"MEAN_MOTION_DOT":1.91e-6,"MEAN_MOTION_DDOT":0},{"OBJECT_NAME":"MACSAT 2 (M 2)","OBJECT_ID":"1990-043B","EPOCH":"2026-03-09T23:13:24.152160","MEAN_MOTION":14.80502521,"ECCENTRICITY":0.00823046,"INCLINATION":89.7422,"RA_OF_ASC_NODE":248.3117,"ARG_OF_PERICENTER":163.6376,"MEAN_ANOMALY":196.7535,"EPHEMERIS_TYPE":0,"CLASSIFICATION_TYPE":"U","NORAD_CAT_ID":20608,"ELEMENT_SET_NO":999,"REV_AT_EPOCH":92371,"BSTAR":0.00022904722,"MEAN_MOTION_DOT":1.876e-5,"MEAN_MOTION_DDOT":0}]
